[{"OBJECT_NAME":"YUNHAI-3 01","OBJECT_ID":"2022-151A","EPOCH":"2026-03-09T23:02:06.865152","MEAN_MOTION":14.13435801,"ECCENTRICITY":0.00017147,"INCLINATION":98.8209,"RA_OF_ASC_NODE":77.7687,"ARG_OF_PERICENTER":54.4546,"MEAN_ANOMALY":305.6786,"EPHEMERIS_TYPE":0,"CLASSIFICATION_TYPE":"U","NORAD_CAT_ID":54235,"ELEMENT_SET_NO":999,"REV_AT_EPOCH":17092,"BSTAR":4.7399629e-5,"MEAN_MOTION_DOT":4.5e-7,"MEAN_MOTION_DDOT":0},{"OBJECT_NAME":"FENGYUN 1C DEB","OBJECT_ID":"1999-025BET","EPOCH":"2026-03-04T05:58:40.443744","MEAN_MOTION":14.04356979,"ECCENTRICITY":0.005025,"INCLINATION":98.803,"RA_OF_ASC_NODE":76.4495,"ARG_OF_PERICENTER":261.3752,"MEAN_ANOMALY":98.1721,"EPHEMERIS_TYPE":0,"CLASSIFICATION_TYPE":"U","NORAD_CAT_ID":31049,"ELEMENT_SET_NO":999,"REV_AT_EPOCH":62259,"BSTAR":0.00055432973,"MEAN_MOTION_DOT":8.49e-6,"MEAN_MOTION_DDOT":0}]
